TRANSPORTER-12 OBJECT AZ
1 62656U 25009AZ  26068.71026235  .00016057  00000+0  54903-3 0  9991
2 62656  97.3981 151.9913 0000987  45.3581 314.7740 15.30349724 63792
STARLINK-33707          
1 63401U 25065C   26067.52696120  .00041503  00000+0  15091-2 0  9994
2 63401  43.0003 113.5212 0002011 291.8895  68.1743 15.27581718 52660
